OBJECT_NAME,OBJECT_ID,EPOCH,MEAN_MOTION,ECCENTRICITY,INCLINATION,RA_OF_ASC_NODE,ARG_OF_PERICENTER,MEAN_ANOMALY,EPHEMERIS_TYPE,CLASSIFICATION_TYPE,NORAD_CAT_ID,ELEMENT_SET_NO,REV_AT_EPOCH,BSTAR,MEAN_MOTION_DOT,MEAN_MOTION_DDOT
STARLINK-37587,2026-154U,2026-07-18T06:00:02.000160,15.80890125,.00012092,53.1590,277.4830,89.3704,104.8646,0,U,69837,999,313,-.16244064E-3,-.32664E-3,0
STARLINK-37590,2026-154V,2026-07-18T06:00:02.000160,15.80893531,.00009012,53.1589,277.4743,106.2921,92.2107,0,U,69838,999,300,-.14348136E-3,-.28948E-3,0
STARLINK-37589,2026-154W,2026-07-18T06:00:02.000160,15.80891253,.00012576,53.1590,277.4653,98.5259,104.2518,0,U,69839,999,313,-.13912331E-3,-.28092E-3,0
STARLINK-37487,2026-154X,2026-07-18T06:00:02.000160,15.84009220,.0000798,53.1574,276.9904,83.2728,347.7545,0,U,69840,999,313,-.11512298E-1,-.2292984E-1,0
STARLINK-37433,2026-154Y,2026-07-18T06:00:02.000160,15.81640468,.00006573,53.1584,276.9852,78.5449,354.8757,0,U,69841,999,326,-.62578425E-2,-.1144826E-1,0
STARLINK-37588,2026-154Z,2026-07-18T06:00:02.000160,15.84249941,.00010206,53.1568,276.9571,72.0674,14.9359,0,U,69842,999,316,-.11605784E-1,-.2332732E-1,0
STARLINK-37579,2026-154AA,2026-07-18T06:00:02.000160,15.82949126,.0000677,53.1579,276.9559,94.8331,352.6711,0,U,69843,999,316,-.93862456E-2,-.1797717E-1,0
STARLINK-37584,2026-154AB,2026-07-18T06:00:02.000160,15.82265568,.00011874,53.1580,276.9454,41.9703,50.4480,0,U,69844,999,316,-.98817743E-2,-.1828332E-1,0
STARLINK-37606,2026-154AC,2026-07-18T06:00:02.000160,15.82850254,.00013634,53.1578,276.9353,100.3301,356.5776,0,U,69845,999,316,-.10905519E-1,-.2040345E-1,0
STARLINK-37603,2026-154AD,2026-07-18T06:00:02.000160,15.81281017,.00009287,53.1582,276.9258,61.9315,39.6210,0,U,69846,999,316,-.38311816E-2,-.710988E-2,0
STARLINK-37595,2026-154AE,2026-07-18T06:00:02.000160,15.81803769,.00008124,53.1583,276.9149,90.3132,16.0907,0,U,69847,999,316,-.65816856E-2,-.1205805E-1,0
QIANFAN-219,2026-155A,2026-07-18T05:46:04.130112,14.26455350,.00308021,89.0064,60.5996,212.7163,147.2124,0,U,69848,999,181,.16442052E-4,.54E-6,0
QIANFAN-220,2026-155B,2026-07-17T20:03:36.390240,14.15144118,.00340039,89.0064,60.6507,211.1294,148.7880,0,U,69849,999,175,-.11202131E+1,-.2023166E-1,0
QIANFAN-221,2026-155C,2026-07-18T05:44:42.749088,14.26647750,.00306083,89.0064,60.5994,213.1536,146.7741,0,U,69850,999,181,.73103408E-4,.192E-5,0
QIANFAN-222,2026-155D,2026-07-17T19:58:00.985440,14.22185075,.00295553,89.0065,60.6495,214.6997,145.2267,0,U,69851,999,175,.15570034E-4,.49E-6,0
QIANFAN-223,2026-155E,2026-07-18T06:02:43.526688,14.22140218,.00293424,89.0065,60.6016,212.6138,147.3242,0,U,69852,999,181,.67979978E-4,.165E-5,0
QIANFAN-224,2026-155F,2026-07-17T21:29:45.028320,14.18497223,.00311144,89.0052,60.6399,224.5648,135.3039,0,U,69853,999,176,-.93450076E+0,-.1809487E-1,0
QIANFAN-225,2026-155G,2026-07-18T05:55:56.447904,14.22451026,.00292658,89.0064,60.6005,213.6162,146.3174,0,U,69854,999,181,.87960282E-4,.211E-5,0
QIANFAN-226,2026-155H,2026-07-18T05:53:57.101856,14.22558888,.0030301,89.0063,60.6003,213.2250,146.7040,0,U,69855,999,181,.49234626E-4,.125E-5,0
QIANFAN-227,2026-155J,2026-07-17T19:39:14.948064,14.20810576,.0029596,89.0057,60.6476,214.6719,145.2543,0,U,69856,999,175,-.10100914E+1,-.202495E-1,0
QIANFAN-228,2026-155K,2026-07-17T19:38:04.300512,14.20885407,.00307899,89.0054,60.6479,216.5012,143.4081,0,U,69857,999,175,-.96549469E+0,-.1944972E-1,0
QIANFAN-229,2026-155L,2026-07-18T05:43:58.348992,14.26690081,.00307398,89.0064,60.5994,212.7783,147.1505,0,U,69858,999,181,.79570815E-4,.208E-5,0
QIANFAN-230,2026-155M,2026-07-17T21:41:32.151840,14.16167691,.00329611,89.0054,60.6411,222.0372,137.8286,0,U,69859,999,176,-.10463152E+1,-.1931944E-1,0
QIANFAN-231,2026-155N,2026-07-18T05:49:13.618272,14.26096904,.00308202,89.0065,60.6002,212.1200,147.8116,0,U,69860,999,181,.76960693E-4,.199E-5,0
QIANFAN-232,2026-155P,2026-07-18T00:40:47.018208,14.26736537,.00305938,89.0063,60.6233,214.1355,145.7872,0,U,69861,999,178,.7652291E-4,.2E-5,0
QIANFAN-233,2026-155Q,2026-07-18T05:43:35.089248,14.26752454,.00305662,89.0064,60.5994,213.2043,146.7233,0,U,69862,999,181,.61595801E-4,.164E-5,0
QIANFAN-234,2026-155R,2026-07-18T05:43:30.081504,14.26759078,.00305369,89.0065,60.5995,213.2656,146.6619,0,U,69863,999,181,.73442454E-4,.193E-5,0
QIANFAN-235,2026-155S,2026-07-18T05:43:25.580064,14.26765036,.00304962,89.0064,60.5993,213.2857,146.6420,0,U,69864,999,181,.78538562E-4,.205E-5,0
QIANFAN-236,2026-155T,2026-07-18T05:43:21.694656,14.26770201,.00304669,89.0064,60.5994,213.3040,146.6238,0,U,69865,999,181,.69884684E-4,.184E-5,0
QIANFAN-237,2026-155U,2026-07-18T05:43:15.253536,14.26778379,.00304379,89.0064,60.5994,213.3453,146.5825,0,U,69866,999,180,.65742137E-4,.174E-5,0
